NORAD_CAT_ID,OBJECT_NAME,OBJECT_TYPE,EPOCH,MEAN_MOTION,ECCENTRICITY,INCLINATION,RA_OF_ASC_NODE,ARG_OF_PERICENTER,MEAN_ANOMALY,BSTAR,MEAN_MOTION_DOT,MEAN_MOTION_DDOT,TLE_LINE0,TLE_LINE1,TLE_LINE2,SEMIMAJOR_AXIS,PERIOD,APOGEE,PERIGEE,DECAYED
51138.0,STARLINK-3177,PAYLOAD,2022-11-22 04:59:32,15.08839185,0.000285,53.2197,301.7592,30.50800000000001,329.6077,8.853500000000001e-06,-1.48e-06,0.0,0 STARLINK-3177,1 51138U 22005AL  22326.20801208 -.00000148  00000-0  88535-5 0  9991,2 51138  53.2197 301.7592 0002850  30.5080 329.6077 15.08839185 48166,6917.8830000000025,95.438,541.719,537.776,0.0
51138.0,STARLINK-3177,PAYLOAD,2022-11-22 08:10:18,15.08838308,0.0002869,53.2197,301.1647,30.2965,329.8192,3.3444e-07,-2.83e-06,0.0,0 STARLINK-3177,1 51138U 22005AL  22326.34049299 -.00000283  00000-0  33444-6 0  9990,2 51138  53.2197 301.1647 0002869  30.2965 329.8192 15.08838308 47064,6917.886,95.438,541.735,537.766,0.0
51138.0,STARLINK-3177,PAYLOAD,2022-11-23 08:01:05,15.08836001,0.0002933,53.2192,296.7044,29.0661,331.0494,1.4041e-05,-6.5e-07,0.0,0 STARLINK-3177,1 51138U 22005AL  22327.33409549 -.00000065  00000-0  14041-4 0  9996,2 51138  53.2192 296.7044 0002933  29.0661 331.0494 15.08836001 48339,6917.893,95.438,541.7869999999998,537.729,0.0
51138.0,STARLINK-3177,PAYLOAD,2022-11-24 07:51:53,15.08833743,0.0002986,53.2188,292.2449,28.4235,331.69199999999995,2.2877e-05,7.5e-07,0.0,0 STARLINK-3177,1 51138U 22005AL  22328.32769842  .00000075  00000-0  22877-4 0  9997,2 51138  53.2188 292.2449 0002986  28.4235 331.6920 15.08833743 47364,6917.9,95.438,541.83,537.6990000000002,0.0
51138.0,STARLINK-3177,PAYLOAD,2022-11-25 02:56:30,15.08836132,0.0002837,53.2195,288.6761,30.781,329.3348,1.9382e-06,-2.58e-06,0.0,0 STARLINK-3177,1 51138U 22005AL  22329.12257913 -.00000258  00000-0  19382-5 0  9999,2 51138  53.2195 288.6761 0002837  30.7810 329.3348 15.08836132 48609,6917.892,95.438,541.72,537.795,0.0
51138.0,STARLINK-3177,PAYLOAD,2022-11-25 07:42:40,15.08845464,0.0002954,53.2193,287.7842,28.3343,331.7809,-0.00016612,-2.932e-05,0.0,0 STARLINK-3177,1 51138U 22005AL  22329.32129973 -.00002932  00000-0 -16612-3 0  9998,2 51138  53.2193 287.7842 0002954  28.3343 331.7809 15.08845464 47517,6917.864000000001,95.437,541.7719999999998,537.685,0.0
51138.0,STARLINK-3177,PAYLOAD,2022-11-26 01:11:54,15.08843913,0.0002871,53.2192,284.5134,30.3614,329.7544,9.6922e-05,1.255e-05,0.0,0 STARLINK-3177,1 51138U 22005AL  22330.04993247  .00001255  00000-0  96922-4 0  9990,2 51138  53.2192 284.5134 0002871  30.3614 329.7544 15.08843913 48743,6917.868,95.437,541.72,537.747,0.0
51138.0,STARLINK-3177,PAYLOAD,2022-11-26 09:08:48,15.08898809,0.000269,53.2191,283.0265,25.5499,334.5625,-0.00067389,-0.00011015,0.0,0 STARLINK-3177,1 51138U 22005AL  22330.38112001 -.00011015  00000-0 -67389-3 0  9999,2 51138  53.2191 283.0265 0002690  25.5499 334.5625 15.08898809 48790,6917.701,95.434,541.427,537.705,0.0
51138.0,STARLINK-3177,PAYLOAD,2022-11-26 13:54:59,15.08846469,0.0003033,53.2191,282.1346,30.0759,330.0407,0.00010003,1.304e-05,0.0,0 STARLINK-3177,1 51138U 22005AL  22330.57985069  .00001304  00000-0  10003-3 0  9991,2 51138  53.2191 282.1346 0003033  30.0759 330.0407 15.08846469 48820,6917.861,95.437,541.8240000000002,537.627,0.0
51138.0,STARLINK-3177,PAYLOAD,2022-11-26 20:16:31,15.08847962,0.0002969,53.2189,280.9449,30.4021,329.7143,0.00013874,1.921e-05,0.0,0 STARLINK-3177,1 51138U 22005AL  22330.84480751  .00001921  00000-0  13874-3 0  9993,2 51138  53.2189 280.9449 0002969  30.4021 329.7143 15.08847962 47741,6917.856,95.437,541.775,537.6669999999998,0.0
51138.0,STARLINK-3177,PAYLOAD,2022-11-27 05:48:51,15.08829148,0.0003044,53.2192,279.1611,28.9952,331.1209,-3.1339e-05,-7.87e-06,0.0,0 STARLINK-3177,1 51138U 22005AL  22331.24226457 -.00000787  00000-0 -31339-4 0  9997,2 51138  53.2192 279.1611 0003044  28.9952 331.1209 15.08829148 48923,6917.9140000000025,95.438,541.884,537.673,0.0
51138.0,STARLINK-3177,PAYLOAD,2022-11-27 13:45:47,15.08832471,0.0002931,53.219,277.6741,28.3121,331.80300000000005,-2.2479e-05,-6.46e-06,0.0,0 STARLINK-3177,1 51138U 22005AL  22331.57346256 -.00000646  00000-0 -22479-4 0  9992,2 51138  53.2190 277.6741 0002931  28.3121 331.8030 15.08832471 47857,6917.903,95.438,541.7959999999998,537.741,0.0
51138.0,STARLINK-3177,PAYLOAD,2022-11-28 13:36:34,15.08836122,0.0002972,53.2194,273.2143,31.8896,328.2276,2.4536e-06,-2.5e-06,0.0,0 STARLINK-3177,1 51138U 22005AL  22332.56706444 -.00000250  00000-0  24536-5 0  9998,2 51138  53.2194 273.2143 0002972  31.8896 328.2276 15.08836122 49123,6917.892,95.438,541.813,537.701,0.0
51138.0,STARLINK-3177,PAYLOAD,2022-11-29 02:19:38,15.088475099999998,0.0002966,53.2192,270.8356,29.4706,330.6452,2.8844e-05,1.71e-06,0.0,0 STARLINK-3177,1 51138U 22005AL  22333.09697533  .00000171  00000-0  28844-4 0  9991,2 51138  53.2192 270.8356 0002966  29.4706 330.6452 15.08847510 49201,6917.857,95.437,541.774,537.6709999999998,0.0
51138.0,STARLINK-3177,PAYLOAD,2022-11-29 05:30:24,15.0885966,0.0003009,53.2193,270.2407,32.8573,327.2606,-6.1684e-05,-1.271e-05,0.0,0 STARLINK-3177,1 51138U 22005AL  22333.22944999 -.00001271  00000-0 -61684-4 0  9990,2 51138  53.2193 270.2407 0003009  32.8573 327.2606 15.08859660 49226,6917.82,95.436,541.7669999999998,537.604,0.0
51138.0,STARLINK-3177,PAYLOAD,2022-11-29 19:48:53,15.08839496,0.0002985,53.2194,267.5643,32.9651,327.1527,0.00015973,2.255e-05,0.0,0 STARLINK-3177,1 51138U 22005AL  22333.82561711  .00002255  00000-0  15973-3 0  9993,2 51138  53.2194 267.5643 0002985  32.9651 327.1527 15.08839496 49314,6917.882,95.438,541.812,537.682,0.0
51138.0,STARLINK-3177,PAYLOAD,2022-11-30 00:35:03,15.08834288,0.0002987,53.2196,266.6722,33.7508,326.3674,0.00011161,1.488e-05,0.0,0 STARLINK-3177,1 51138U 22005AL  22334.02434324  .00001488  00000-0  11161-3 0  9997,2 51138  53.2196 266.6722 0002987  33.7508 326.3674 15.08834288 49347,6917.898,95.438,541.8290000000002,537.696,0.0
51138.0,STARLINK-3177,PAYLOAD,2022-11-30 05:21:13,15.08828307,0.0003016,53.2195,265.7805,32.8533,327.2646,4.2594e-05,3.89e-06,0.0,0 STARLINK-3177,1 51138U 22005AL  22334.22306993  .00000389  00000-0  42594-4 0  9993,2 51138  53.2195 265.7805 0003016  32.8533 327.2646 15.08828307 49377,6917.916,95.438,541.868,537.695,0.0
51138.0,STARLINK-3177,PAYLOAD,2022-12-01 02:01:13,15.08840124,0.0003049,53.2193,261.915,34.354,325.7649,-1.3778e-05,-5.08e-06,0.0,0 STARLINK-3177,1 51138U 22005AL  22335.08418585 -.00000508  00000-0 -13778-4 0  9996,2 51138  53.2193 261.9150 0003049  34.3540 325.7649 15.08840124 49509,6917.88,95.438,541.854,537.636,0.0
51138.0,STARLINK-3177,PAYLOAD,2022-12-01 05:11:59,15.08839849,0.0003031,53.2191,261.3198,31.298,328.8192,-2.1396e-05,-6.29e-06,0.0,0 STARLINK-3177,1 51138U 22005AL  22335.21666646 -.00000629  00000-0 -21396-4 0  9993,2 51138  53.2191 261.3198 0003031  31.2980 328.8192 15.08839849 48405,6917.880999999999,95.438,541.8430000000002,537.649,0.0
51138.0,STARLINK-3177,PAYLOAD,2022-12-02 11:24:19,15.0883455,0.0003317,53.2187,255.6699,25.8314,334.2843,5.7738e-05,6.3e-06,0.0,0 STARLINK-3177,1 51138U 22005AL  22336.47522831  .00000630  00000-0  57738-4 0  9998,2 51138  53.2187 255.6699 0003317  25.8314 334.2843 15.08834550 49712,6917.897,95.438,542.057,537.467,0.0
51138.0,STARLINK-3177,PAYLOAD,2022-12-03 03:18:10,15.08835107,0.0003112,53.219,252.6953,26.3337,333.7813,4.3977e-05,4.11e-06,0.0,0 STARLINK-3177,1 51138U 22005AL  22337.13762676  .00000411  00000-0  43977-4 0  9992,2 51138  53.2190 252.6953 0003112  26.3337 333.7813 15.08835107 48696,6917.895,95.438,541.913,537.607,0.0
51138.0,STARLINK-3177,PAYLOAD,2022-12-04 03:08:58,15.08829824,0.0003188999999999,53.2185,248.2363,28.794,331.3228,9.0362e-05,1.149e-05,0.0,0 STARLINK-3177,1 51138U 22005AL  22338.13123398  .00001149  00000-0  90362-4 0  9994,2 51138  53.2185 248.2363 0003189  28.7940 331.3228 15.08829824 49960,6917.911,95.438,541.9830000000002,537.57,0.0
51138.0,STARLINK-3177,PAYLOAD,2022-12-04 11:05:53,15.08837676,0.0003095,53.2186,246.7495,28.372,331.744,0.00013488,1.859e-05,0.0,0 STARLINK-3177,1 51138U 22005AL  22338.46242863  .00001859  00000-0  13488-3 0  9990,2 51138  53.2186 246.7495 0003095  28.3720 331.7440 15.08837676 48893,6917.887,95.438,541.894,537.611,0.0
51138.0,STARLINK-3177,PAYLOAD,2022-12-04 22:13:35,15.08850668,0.0003081,53.2187,244.6681,30.5385,329.5786,6.7993e-05,7.94e-06,0.0,0 STARLINK-3177,1 51138U 22005AL  22338.92610121  .00000794  00000-0  67993-4 0  9995,2 51138  53.2187 244.6681 0003081  30.5385 329.5786 15.08850668 50083,6917.848000000001,95.437,541.844,537.581,0.0
51138.0,STARLINK-3177,PAYLOAD,2022-12-05 10:56:40,15.08845496,0.0003058,53.2186,242.2895,31.9062,328.2115,0.0001751999999999,2.501e-05,0.0,0 STARLINK-3177,1 51138U 22005AL  22339.45602001  .00002501  00000-0  17520-3 0  9990,2 51138  53.2186 242.2895 0003058  31.9062 328.2115 15.08845496 49043,6917.864000000001,95.437,541.844,537.613,0.0
51138.0,STARLINK-3177,PAYLOAD,2022-12-05 17:18:12,15.0884631,0.000315,53.2184,241.1007,29.2558,330.861,0.00013218,1.816e-05,0.0,0 STARLINK-3177,1 51138U 22005AL  22339.72098096  .00001816  00000-0  13218-3 0  9991,2 51138  53.2184 241.1007 0003150  29.2558 330.8610 15.08846310 50202,6917.861,95.437,541.905,537.547,0.0
51138.0,STARLINK-3177,PAYLOAD,2022-12-06 10:47:26,15.08863891,0.0003344,53.219,237.8289,30.2661,329.8524,-0.00014177,-2.546e-05,0.0,0 STARLINK-3177,1 51138U 22005AL  22340.44961392 -.00002546  00000-0 -14177-3 0  9998,2 51138  53.2190 237.8289 0003344  30.2661 329.8524 15.08863891 49196,6917.807,95.436,541.986,537.359,0.0
51138.0,STARLINK-3177,PAYLOAD,2022-12-06 17:08:59,15.08842688,0.0002956,53.2176,236.642,31.0351,329.0815,2.3857e-05,9.1e-07,0.0,0 STARLINK-3177,1 51138U 22005AL  22340.71458228  .00000091  00000-0  23857-4 0  9994,2 51138  53.2176 236.6420 0002956  31.0351 329.0815 15.08842688 50353,6917.871999999999,95.437,541.7819999999998,537.692,0.0
